{"fetched_at":"2026-03-29T16:36:15Z","count":15609,"tles":[{"name":"STARLINK-32662","line1":"1 62215U 24229Z   26087.48538070  .00023010  00000+0  84279-3 0  9991","line2":"2 62215  43.0009 164.7563 0000295 293.7483  66.3338 15.27590866 73433","category":"Starlink"}]}