{
  "norad_id": 62215,
  "name": "STARLINK-32662",
  "history": [
    {
      "epoch": "2026-03-28T11:38:56.892480",
      "apogee_km": 483.2190321610369,
      "perigee_km": 482.81408687795374,
      "latitude_deg": -14.49504924229695,
      "longitude_deg": 88.09654719987884,
      "semi_major_axis_km": 6861.153559519495,
      "eccentricity": 2.951e-05,
      "inclination_deg": 43.0009,
      "raan_deg": 164.7563,
      "arg_perigee_deg": 293.7483,
      "mean_anomaly_deg": 66.3338,
      "mean_motion_rev_day": 15.27590866
    }
  ]
}